STARLINK-3137
1 49449U 21104AT  26060.93798043  .00019294  00000+0  47129-3 0  9995
2 49449  53.2167 242.0704 0001133  90.2791 269.8345 15.40877911237777
